ONEWEB-0161             
1 48053U 21025M   25274.77453100 -.00000233  00000+0 -67417-3 0  9994
2 48053  87.9049  11.5696 0002005 101.9594 258.1760 13.13469860219588
ONEWEB-0158             
1 48054U 21025N   25274.81008852  .00000258  00000+0  67032-3 0  9998
2 48054  87.9054  11.5425 0001481 103.5504 256.5790 13.13468457219712
ONEWEB-0157             
1 48055U 21025P   25275.21636282 -.00000360  00000+0 -10212-2 0  9991
2 48055  87.9052  11.4694 0002207 105.2734 254.8639 13.13468998219701
ONEWEB-0162             
1 48056U 21025Q   25274.96400786  .00000037  00000+0  65219-4 0  9999
2 48056  87.9055  11.5197 0001865 100.4304 259.7035 13.13469355219648
ONEWEB-0155             
1 48057U 21025R   25274.97090627  .00000021  00000+0  23564-4 0  9990
2 48057  87.9051  11.5249 0001873 107.0608 253.0727 13.13467727219783
ONEWEB-0149             
1 48058U 21025S   25274.99290494 -.00000343  00000+0 -97384-3 0  9996
2 48058  87.9047  11.5146 0001923  94.9317 265.2032 13.13467763219595
ONEWEB-0148             
1 48059U 21025T   25275.03185161  .00000253  00000+0  65658-3 0  9994
2 48059  87.9047  11.5311 0002346  90.4459 269.6939 13.13469471219725
ONEWEB-0160             
1 48060U 21025U   25274.97259486  .00000050  00000+0  10266-3 0  9990
2 48060  87.9047  11.5400 0001061  89.4617 270.6633 13.13468576219664
ONEWEB-0163             
1 48061U 21025V   25275.03354088  .00000107  00000+0  25882-3 0  9996
2 48061  87.9050  11.5093 0002125 104.8031 255.3333 13.13469482219799
ONEWEB-0159             
1 48062U 21025W   25275.02509191  .00000681  00000+0  18310-2 0  9997
2 48062  87.9049  11.4935 0002084  99.9683 260.1681 13.13467326219710
ONEWEB-0164             
1 48063U 21025X   25275.00645595 -.00000289  00000+0 -82700-3 0  9996
2 48063  87.9053  11.5057 0001734 101.5700 258.5624 13.13469850219692
ONEWEB-0167             
1 48064U 21025Y   25275.03439468  .00000290  00000+0  75933-3 0  9990
2 48064  87.9044  11.5333 0002105 121.8935 238.2399 13.13469490219681
ONEWEB-0166             
1 48065U 21025Z   25274.98107093 -.00000146  00000+0 -43465-3 0  9997
2 48065  87.9049  11.4947 0001960  97.0563 263.0789 13.13469957219751
ONEWEB-0151             
1 48066U 21025AA  25274.98275037 -.00000148  00000+0 -44107-3 0  9998
2 48066  87.9052  11.5196 0001774 105.5879 254.5446 13.13467966219697
ONEWEB-0170             
1 48067U 21025AB  25274.99122686 -.00000378  00000+0 -10699-2 0  9994
2 48067  87.9054  11.5248 0001410 110.6484 249.4796 13.13470237219656
ONEWEB-0168             
1 48068U 21025AC  25274.97598999 -.00000093  00000+0 -28835-3 0  9993
2 48068  87.9055  11.5094 0001993 102.1880 257.9472 13.13468977219663
ONEWEB-0173             
1 48069U 21025AD  25274.96752233  .00000123  00000+0  30253-3 0  9995
2 48069  87.9055  11.5191 0002133 109.8696 250.2663 13.13467963219907
