[{"OBJECT_NAME":"ONEWEB-0161","OBJECT_ID":"2021-025M","EPOCH":"2025-10-01T18:35:19.478400","MEAN_MOTION":13.1346986,"ECCENTRICITY":0.00020051,"INCLINATION":87.9049,"RA_OF_ASC_NODE":11.5696,"ARG_OF_PERICENTER":101.9594,"MEAN_ANOMALY":258.176,"EPHEMERIS_TYPE":0,"CLASSIFICATION_TYPE":"U","NORAD_CAT_ID":48053,"ELEMENT_SET_NO":999,"REV_AT_EPOCH":21958,"BSTAR":-0.00067417103,"MEAN_MOTION_DOT":-2.33e-6,"MEAN_MOTION_DDOT":0},{"OBJECT_NAME":"ONEWEB-0158","OBJECT_ID":"2021-025N","EPOCH":"2025-10-01T19:26:31.648128","MEAN_MOTION":13.13468457,"ECCENTRICITY":0.00014819,"INCLINATION":87.9054,"RA_OF_ASC_NODE":11.5425,"ARG_OF_PERICENTER":103.5504,"MEAN_ANOMALY":256.579,"EPHEMERIS_TYPE":0,"CLASSIFICATION_TYPE":"U","NORAD_CAT_ID":48054,"ELEMENT_SET_NO":999,"REV_AT_EPOCH":21971,"BSTAR":0.00067032395,"MEAN_MOTION_DOT":2.58e-6,"MEAN_MOTION_DDOT":0},{"OBJECT_NAME":"ONEWEB-0157","OBJECT_ID":"2021-025P","EPOCH":"2025-10-02T05:11:33.747648","MEAN_MOTION":13.13468998,"ECCENTRICITY":0.0002207,"INCLINATION":87.9052,"RA_OF_ASC_NODE":11.4694,"ARG_OF_PERICENTER":105.2734,"MEAN_ANOMALY":254.8639,"EPHEMERIS_TYPE":0,"CLASSIFICATION_TYPE":"U","NORAD_CAT_ID":48055,"ELEMENT_SET_NO":999,"REV_AT_EPOCH":21970,"BSTAR":-0.0010212,"MEAN_MOTION_DOT":-3.6e-6,"MEAN_MOTION_DDOT":0},{"OBJECT_NAME":"ONEWEB-0162","OBJECT_ID":"2021-025Q","EPOCH":"2025-10-01T23:08:10.279104","MEAN_MOTION":13.13469355,"ECCENTRICITY":0.0001865,"INCLINATION":87.9055,"RA_OF_ASC_NODE":11.5197,"ARG_OF_PERICENTER":100.4304,"MEAN_ANOMALY":259.7035,"EPHEMERIS_TYPE":0,"CLASSIFICATION_TYPE":"U","NORAD_CAT_ID":48056,"ELEMENT_SET_NO":999,"REV_AT_EPOCH":21964,"BSTAR":6.5219e-5,"MEAN_MOTION_DOT":3.7e-7,"MEAN_MOTION_DDOT":0},{"OBJECT_NAME":"ONEWEB-0155","OBJECT_ID":"2021-025R","EPOCH":"2025-10-01T23:18:06.301728","MEAN_MOTION":13.13467727,"ECCENTRICITY":0.0001873,"INCLINATION":87.9051,"RA_OF_ASC_NODE":11.5249,"ARG_OF_PERICENTER":107.0608,"MEAN_ANOMALY":253.0727,"EPHEMERIS_TYPE":0,"CLASSIFICATION_TYPE":"U","NORAD_CAT_ID":48057,"ELEMENT_SET_NO":999,"REV_AT_EPOCH":21978,"BSTAR":2.3564e-5,"MEAN_MOTION_DOT":2.1e-7,"MEAN_MOTION_DDOT":0},{"OBJECT_NAME":"ONEWEB-0149","OBJECT_ID":"2021-025S","EPOCH":"2025-10-01T23:49:46.986816","MEAN_MOTION":13.13467763,"ECCENTRICITY":0.0001923,"INCLINATION":87.9047,"RA_OF_ASC_NODE":11.5146,"ARG_OF_PERICENTER":94.9317,"MEAN_ANOMALY":265.2032,"EPHEMERIS_TYPE":0,"CLASSIFICATION_TYPE":"U","NORAD_CAT_ID":48058,"ELEMENT_SET_NO":999,"REV_AT_EPOCH":21959,"BSTAR":-0.00097384,"MEAN_MOTION_DOT":-3.43e-6,"MEAN_MOTION_DDOT":0},{"OBJECT_NAME":"ONEWEB-0148","OBJECT_ID":"2021-025T","EPOCH":"2025-10-02T00:45:51.979104","MEAN_MOTION":13.13469471,"ECCENTRICITY":0.0002346,"INCLINATION":87.9047,"RA_OF_ASC_NODE":11.5311,"ARG_OF_PERICENTER":90.4459,"MEAN_ANOMALY":269.6939,"EPHEMERIS_TYPE":0,"CLASSIFICATION_TYPE":"U","NORAD_CAT_ID":48059,"ELEMENT_SET_NO":999,"REV_AT_EPOCH":21972,"BSTAR":0.00065658,"MEAN_MOTION_DOT":2.53e-6,"MEAN_MOTION_DDOT":0},{"OBJECT_NAME":"ONEWEB-0160","OBJECT_ID":"2021-025U","EPOCH":"2025-10-01T23:20:32.195904","MEAN_MOTION":13.13468576,"ECCENTRICITY":0.0001061,"INCLINATION":87.9047,"RA_OF_ASC_NODE":11.54,"ARG_OF_PERICENTER":89.4617,"MEAN_ANOMALY":270.6633,"EPHEMERIS_TYPE":0,"CLASSIFICATION_TYPE":"U","NORAD_CAT_ID":48060,"ELEMENT_SET_NO":999,"REV_AT_EPOCH":21966,"BSTAR":0.00010266,"MEAN_MOTION_DOT":5.0e-7,"MEAN_MOTION_DDOT":0},{"OBJECT_NAME":"ONEWEB-0163","OBJECT_ID":"2021-025V","EPOCH":"2025-10-02T00:48:17.932032","MEAN_MOTION":13.13469482,"ECCENTRICITY":0.0002125,"INCLINATION":87.905,"RA_OF_ASC_NODE":11.5093,"ARG_OF_PERICENTER":104.8031,"MEAN_ANOMALY":255.3333,"EPHEMERIS_TYPE":0,"CLASSIFICATION_TYPE":"U","NORAD_CAT_ID":48061,"ELEMENT_SET_NO":999,"REV_AT_EPOCH":21979,"BSTAR":0.00025882,"MEAN_MOTION_DOT":1.07e-6,"MEAN_MOTION_DDOT":0},{"OBJECT_NAME":"ONEWEB-0159","OBJECT_ID":"2021-025W","EPOCH":"2025-10-02T00:36:07.941024","MEAN_MOTION":13.13467326,"ECCENTRICITY":0.0002084,"INCLINATION":87.9049,"RA_OF_ASC_NODE":11.4935,"ARG_OF_PERICENTER":99.9683,"MEAN_ANOMALY":260.1681,"EPHEMERIS_TYPE":0,"CLASSIFICATION_TYPE":"U","NORAD_CAT_ID":48062,"ELEMENT_SET_NO":999,"REV_AT_EPOCH":21971,"BSTAR":0.001831,"MEAN_MOTION_DOT":6.81e-6,"MEAN_MOTION_DDOT":0},{"OBJECT_NAME":"ONEWEB-0164","OBJECT_ID":"2021-025X","EPOCH":"2025-10-02T00:09:17.794080","MEAN_MOTION":13.1346985,"ECCENTRICITY":0.0001734,"INCLINATION":87.9053,"RA_OF_ASC_NODE":11.5057,"ARG_OF_PERICENTER":101.57,"MEAN_ANOMALY":258.5624,"EPHEMERIS_TYPE":0,"CLASSIFICATION_TYPE":"U","NORAD_CAT_ID":48063,"ELEMENT_SET_NO":999,"REV_AT_EPOCH":21969,"BSTAR":-0.000827,"MEAN_MOTION_DOT":-2.89e-6,"MEAN_MOTION_DDOT":0},{"OBJECT_NAME":"ONEWEB-0167","OBJECT_ID":"2021-025Y","EPOCH":"2025-10-02T00:49:31.700352","MEAN_MOTION":13.1346949,"ECCENTRICITY":0.0002105,"INCLINATION":87.9044,"RA_OF_ASC_NODE":11.5333,"ARG_OF_PERICENTER":121.8935,"MEAN_ANOMALY":238.2399,"EPHEMERIS_TYPE":0,"CLASSIFICATION_TYPE":"U","NORAD_CAT_ID":48064,"ELEMENT_SET_NO":999,"REV_AT_EPOCH":21968,"BSTAR":0.00075933,"MEAN_MOTION_DOT":2.9e-6,"MEAN_MOTION_DDOT":0},{"OBJECT_NAME":"ONEWEB-0166","OBJECT_ID":"2021-025Z","EPOCH":"2025-10-01T23:32:44.528352","MEAN_MOTION":13.13469957,"ECCENTRICITY":0.000196,"INCLINATION":87.9049,"RA_OF_ASC_NODE":11.4947,"ARG_OF_PERICENTER":97.0563,"MEAN_ANOMALY":263.0789,"EPHEMERIS_TYPE":0,"CLASSIFICATION_TYPE":"U","NORAD_CAT_ID":48065,"ELEMENT_SET_NO":999,"REV_AT_EPOCH":21975,"BSTAR":-0.00043465,"MEAN_MOTION_DOT":-1.46e-6,"MEAN_MOTION_DDOT":0},{"OBJECT_NAME":"ONEWEB-0151","OBJECT_ID":"2021-025AA","EPOCH":"2025-10-01T23:35:09.631968","MEAN_MOTION":13.13467966,"ECCENTRICITY":0.0001774,"INCLINATION":87.9052,"RA_OF_ASC_NODE":11.5196,"ARG_OF_PERICENTER":105.5879,"MEAN_ANOMALY":254.5446,"EPHEMERIS_TYPE":0,"CLASSIFICATION_TYPE":"U","NORAD_CAT_ID":48066,"ELEMENT_SET_NO":999,"REV_AT_EPOCH":21969,"BSTAR":-0.00044107,"MEAN_MOTION_DOT":-1.48e-6,"MEAN_MOTION_DDOT":0},{"OBJECT_NAME":"ONEWEB-0170","OBJECT_ID":"2021-025AB","EPOCH":"2025-10-01T23:47:22.000704","MEAN_MOTION":13.13470237,"ECCENTRICITY":0.000141,"INCLINATION":87.9054,"RA_OF_ASC_NODE":11.5248,"ARG_OF_PERICENTER":110.6484,"MEAN_ANOMALY":249.4796,"EPHEMERIS_TYPE":0,"CLASSIFICATION_TYPE":"U","NORAD_CAT_ID":48067,"ELEMENT_SET_NO":999,"REV_AT_EPOCH":21965,"BSTAR":-0.0010699,"MEAN_MOTION_DOT":-3.78e-6,"MEAN_MOTION_DDOT":0},{"OBJECT_NAME":"ONEWEB-0168","OBJECT_ID":"2021-025AC","EPOCH":"2025-10-01T23:25:25.535136","MEAN_MOTION":13.13468977,"ECCENTRICITY":0.0001993,"INCLINATION":87.9055,"RA_OF_ASC_NODE":11.5094,"ARG_OF_PERICENTER":102.188,"MEAN_ANOMALY":257.9472,"EPHEMERIS_TYPE":0,"CLASSIFICATION_TYPE":"U","NORAD_CAT_ID":48068,"ELEMENT_SET_NO":999,"REV_AT_EPOCH":21966,"BSTAR":-0.00028835,"MEAN_MOTION_DOT":-9.3e-7,"MEAN_MOTION_DDOT":0},{"OBJECT_NAME":"ONEWEB-0173","OBJECT_ID":"2021-025AD","EPOCH":"2025-10-01T23:13:13.929312","MEAN_MOTION":13.13467963,"ECCENTRICITY":0.0002133,"INCLINATION":87.9055,"RA_OF_ASC_NODE":11.5191,"ARG_OF_PERICENTER":109.8696,"MEAN_ANOMALY":250.2663,"EPHEMERIS_TYPE":0,"CLASSIFICATION_TYPE":"U","NORAD_CAT_ID":48069,"ELEMENT_SET_NO":999,"REV_AT_EPOCH":21990,"BSTAR":0.00030253,"MEAN_MOTION_DOT":1.23e-6,"MEAN_MOTION_DDOT":0}]
